start=new Date('2023-04-24T00:00:00.000Z').valueOf();
sats=[{"TIME_SYSTEM":"UTC","REV_AT_EPOCH":"14110","MEAN_ELEMENT_THEORY":"SGP4","RCS_SIZE":"LARGE","LAUNCH_DATE":"2020-10-06","COUNTRY_CODE":"US","REF_FRAME":"TEME","ELEMENT_SET_NO":"999","TLE_LINE2":"2 46546  53.0522 214.2881 0001482  76.6015 283.5139 15.06488351141109","EPOCH":"2023-04-23T18:56:35.788704","RA_OF_ASC_NODE":"214.2881","SEMIMAJOR_AXIS":"6925.078","OBJECT_ID":"2020-070Q","DECAY_DATE":null,"APOAPSIS":"547.969","OBJECT_TYPE":"PAYLOAD","BSTAR":"0.00226330000000","CENTER_NAME":"EARTH","ECCENTRICITY":"0.00014820","NORAD_CAT_ID":"46546","MEAN_MOTION_DOT":"0.00033673","ARG_OF_PERICENTER":"76.6015","GP_ID":"230656490","CLASSIFICATION_TYPE":"U","MEAN_MOTION":"15.06488351","PERIOD":"95.587","PERIAPSIS":"545.916","MEAN_ANOMALY":"283.5139","TLE_LINE1":"1 46546U 20070Q   23113.78930311  .00033673  00000-0  22633-2 0  9996","INCLINATION":"53.0522","SITE":"AFETR","OBJECT_NAME":"STARLINK-1697","FILE":"3892831","EPHEMERIS_TYPE":"0","MEAN_MOTION_DDOT":"0.0000000000000"},{"ELEMENT_SET_NO":"999","TLE_LINE2":"2 46547  53.0531 214.4478 0001339  93.2925 266.8217 15.06480138141106","EPOCH":"2023-04-23T18:02:08.766240","REF_FRAME":"TEME","LAUNCH_DATE":"2020-10-06","COUNTRY_CODE":"US","RCS_SIZE":"LARGE","MEAN_ELEMENT_THEORY":"SGP4","REV_AT_EPOCH":"14110","TIME_SYSTEM":"UTC","FILE":"3892831","EPHEMERIS_TYPE":"0","OBJECT_NAME":"STARLINK-1698","MEAN_MOTION_DDOT":"0.0000000000000","PERIAPSIS":"546.041","MEAN_ANOMALY":"266.8217","TLE_LINE1":"1 46547U 20070R   23113.75149035  .00045851  00000-0  30705-2 0  9999","INCLINATION":"53.0531","SITE":"AFETR","MEAN_MOTION":"15.06480138","PERIOD":"95.587","MEAN_MOTION_DOT":"0.00045851","ARG_OF_PERICENTER":"93.2925","GP_ID":"230657740","CLASSIFICATION_TYPE":"U","BSTAR":"0.00307050000000","ECCENTRICITY":"0.00013390","CENTER_NAME":"EARTH","NORAD_CAT_ID":"46547","OBJECT_ID":"2020-070R","DECAY_DATE":null,"OBJECT_TYPE":"PAYLOAD","APOAPSIS":"547.895","RA_OF_ASC_NODE":"214.4478","SEMIMAJOR_AXIS":"6925.103"},{"MEAN_ELEMENT_THEORY":"SGP4","TIME_SYSTEM":"UTC","REV_AT_EPOCH":"14109","REF_FRAME":"TEME","EPOCH":"2023-04-23T16:43:53.734944","TLE_LINE2":"2 46548  53.0524 214.7038 0001282  81.1821 278.9313 15.06460617141091","ELEMENT_SET_NO":"999","RCS_SIZE":"LARGE","LAUNCH_DATE":"2020-10-06","COUNTRY_CODE":"US","NORAD_CAT_ID":"46548","ECCENTRICITY":"0.00012820","CENTER_NAME":"EARTH","BSTAR":"0.00189390000000","CLASSIFICATION_TYPE":"U","GP_ID":"230657986","MEAN_MOTION_DOT":"0.00028087","ARG_OF_PERICENTER":"81.1821","SEMIMAJOR_AXIS":"6925.163","RA_OF_ASC_NODE":"214.7038","OBJECT_TYPE":"PAYLOAD","APOAPSIS":"547.916","OBJECT_ID":"2020-070S","DECAY_DATE":null,"TLE_LINE1":"1 46548U 20070S   23113.69714971  .00028087  00000-0  18939-2 0  9997","SITE":"AFETR","INCLINATION":"53.0524","MEAN_ANOMALY":"278.9313","PERIAPSIS":"546.140","MEAN_MOTION_DDOT":"0.0000000000000","EPHEMERIS_TYPE":"0","FILE":"3892831","OBJECT_NAME":"STARLINK-1699","PERIOD":"95.588","MEAN_MOTION":"15.06460617"},{"BSTAR":"0.00233770000000","CENTER_NAME":"EARTH","ECCENTRICITY":"0.00013400","NORAD_CAT_ID":"46549","MEAN_MOTION_DOT":"0.00034785","ARG_OF_PERICENTER":"92.1141","GP_ID":"230656240","CLASSIFICATION_TYPE":"U","RA_OF_ASC_NODE":"214.8682","SEMIMAJOR_AXIS":"6925.108","DECAY_DATE":null,"OBJECT_ID":"2020-070T","APOAPSIS":"547.901","OBJECT_TYPE":"PAYLOAD","PERIAPSIS":"546.045","MEAN_ANOMALY":"268.0002","TLE_LINE1":"1 46549U 20070T   23113.66029226  .00034785  00000-0  23377-2 0  9991","INCLINATION":"53.0530","SITE":"AFETR","OBJECT_NAME":"STARLINK-1700","FILE":"3892831","EPHEMERIS_TYPE":"0","MEAN_MOTION_DDOT":"0.0000000000000","MEAN_MOTION":"15.06478391","PERIOD":"95.587","MEAN_ELEMENT_THEORY":"SGP4","TIME_SYSTEM":"UTC","REV_AT_EPOCH":"14108","REF_FRAME":"TEME","ELEMENT_SET_NO":"999","TLE_LINE2":"2 46549  53.0530 214.8682 0001340  92.1141 268.0002 15.06478391141089","EPOCH":"2023-04-23T15:50:49.251264","RCS_SIZE":"LARGE","COUNTRY_CODE":"US","LAUNCH_DATE":"2020-10-06"},{"NORAD_CAT_ID":"46550","CENTER_NAME":"EARTH","ECCENTRICITY":"0.00013070","BSTAR":"0.00239490000000","CLASSIFICATION_TYPE":"U","GP_ID":"230656989","ARG_OF_PERICENTER":"97.9496","MEAN_MOTION_DOT":"0.00035607","SEMIMAJOR_AXIS":"6925.234","RA_OF_ASC_NODE":"214.6407","OBJECT_TYPE":"PAYLOAD","APOAPSIS":"548.004","OBJECT_ID":"2020-070U","DECAY_DATE":null,"TLE_LINE1":"1 46550U 20070U   23113.71189809  .00035607  00000-0  23949-2 0  9992","SITE":"AFETR","INCLINATION":"53.0541","MEAN_ANOMALY":"262.1642","PERIAPSIS":"546.194","MEAN_MOTION_DDOT":"0.0000000000000","OBJECT_NAME":"STARLINK-1701","FILE":"3892831","EPHEMERIS_TYPE":"0","PERIOD":"95.590","MEAN_MOTION":"15.06437385","MEAN_ELEMENT_THEORY":"SGP4","REV_AT_EPOCH":"14109","TIME_SYSTEM":"UTC","REF_FRAME":"TEME","TLE_LINE2":"2 46550  53.0541 214.6407 0001307  97.9496 262.1642 15.06437385141099","EPOCH":"2023-04-23T17:05:07.994976","ELEMENT_SET_NO":"999","RCS_SIZE":"LARGE","COUNTRY_CODE":"US","LAUNCH_DATE":"2020-10-06"},{"TLE_LINE1":"1 46553U 20070X   23113.56723071  .00027138  00000-0  18315-2 0  9994","INCLINATION":"53.0515","SITE":"AFETR","MEAN_ANOMALY":"305.6214","PERIAPSIS":"546.234","MEAN_MOTION_DDOT":"0.0000000000000","FILE":"3892688","EPHEMERIS_TYPE":"0","OBJECT_NAME":"STARLINK-1664","PERIOD":"95.589","MEAN_MOTION":"15.06445431","NORAD_CAT_ID":"46553","ECCENTRICITY":"0.00012130","CENTER_NAME":"EARTH","BSTAR":"0.00183150000000","CLASSIFICATION_TYPE":"U","GP_ID":"230627048","MEAN_MOTION_DOT":"0.00027138","ARG_OF_PERICENTER":"54.4888","SEMIMAJOR_AXIS":"6925.209","RA_OF_ASC_NODE":"185.3034","OBJECT_TYPE":"PAYLOAD","APOAPSIS":"547.914","OBJECT_ID":"2020-070X","DECAY_DATE":null,"REF_FRAME":"TEME","EPOCH":"2023-04-23T13:36:48.733344","TLE_LINE2":"2 46553  53.0515 185.3034 0001213  54.4888 305.6214 15.06445431141495","ELEMENT_SET_NO":"999","RCS_SIZE":"LARGE","COUNTRY_CODE":"US","LAUNCH_DATE":"2020-10-06","MEAN_ELEMENT_THEORY":"SGP4","TIME_SYSTEM":"UTC","REV_AT_EPOCH":"14149"},{"REV_AT_EPOCH":"14129","TIME_SYSTEM":"UTC","MEAN_ELEMENT_THEORY":"SGP4","RCS_SIZE":"LARGE","LAUNCH_DATE":"2020-10-06","COUNTRY_CODE":"US","REF_FRAME":"TEME","ELEMENT_SET_NO":"999","EPOCH":"2023-04-23T14:51:46.553184","TLE_LINE2":"2 46554  53.0518 200.0588 0001351  70.0573 290.0561 15.06463687141299","RA_OF_ASC_NODE":"200.0588","SEMIMAJOR_AXIS":"6925.153","DECAY_DATE":null,"OBJECT_ID":"2020-070Y","APOAPSIS":"547.954","OBJECT_TYPE":"PAYLOAD","BSTAR":"0.00190060000000","CENTER_NAME":"EARTH","ECCENTRICITY":"0.00013510","NORAD_CAT_ID":"46554","ARG_OF_PERICENTER":"70.0573","MEAN_MOTION_DOT":"0.00028190","GP_ID":"230657486","CLASSIFICATION_TYPE":"U","MEAN_MOTION":"15.06463687","PERIOD":"95.588","PERIAPSIS":"546.083","MEAN_ANOMALY":"290.0561","TLE_LINE1":"1 46554U 20070Y   23113.61928881  .00028190  00000-0  19006-2 0  9994","SITE":"AFETR","INCLINATION":"53.0518","FILE":"3892831","OBJECT_NAME":"STARLINK-1671","EPHEMERIS_TYPE":"0","MEAN_MOTION_DDOT":"0.0000000000000"},{"APOAPSIS":"547.527","OBJECT_TYPE":"PAYLOAD","DECAY_DATE":null,"OBJECT_ID":"2020-070AA","SEMIMAJOR_AXIS":"6925.114","RA_OF_ASC_NODE":"214.4920","GP_ID":"230656740","CLASSIFICATION_TYPE":"U","MEAN_MOTION_DOT":"0.00035656","ARG_OF_PERICENTER":"106.1717","CENTER_NAME":"EARTH","ECCENTRICITY":"0.00007920","NORAD_CAT_ID":"46556","BSTAR":"0.00239560000000","PERIOD":"95.587","MEAN_MOTION":"15.06476570","MEAN_MOTION_DDOT":"0.0000000000000","EPHEMERIS_TYPE":"0","FILE":"3892831","OBJECT_NAME":"STARLINK-1676","MEAN_ANOMALY":"253.9359","INCLINATION":"53.0539","TLE_LINE1":"1 46556U 20070AA  23113.74506416  .00035656  00000-0  23956-2 0  9990","SITE":"AFETR","PERIAPSIS":"546.430","TIME_SYSTEM":"UTC","REV_AT_EPOCH":"14110","MEAN_ELEMENT_THEORY":"SGP4","LAUNCH_DATE":"2020-10-06","COUNTRY_CODE":"US","RCS_SIZE":"LARGE","ELEMENT_SET_NO":"999","EPOCH":"2023-04-23T17:52:53.543424","TLE_LINE2":"2 46556  53.0539 214.4920 0000792 106.1717 253.9359 15.06476570141100","REF_FRAME":"TEME"},{"TIME_SYSTEM":"UTC","REV_AT_EPOCH":"14127","MEAN_ELEMENT_THEORY":"SGP4","COUNTRY_CODE":"US","LAUNCH_DATE":"2020-10-06","RCS_SIZE":"LARGE","TLE_LINE2":"2 46557  53.0527 200.7814 0001581  73.8243 286.2919 15.06451381141271","EPOCH":"2023-04-23T10:58:14.358432","ELEMENT_SET_NO":"999","REF_FRAME":"TEME","OBJECT_TYPE":"PAYLOAD","APOAPSIS":"548.151","DECAY_DATE":null,"OBJECT_ID":"2020-070AB","SEMIMAJOR_AXIS":"6925.191","RA_OF_ASC_NODE":"200.7814","CLASSIFICATION_TYPE":"U","GP_ID":"230656491","ARG_OF_PERICENTER":"73.8243","MEAN_MOTION_DOT":"0.00036454","NORAD_CAT_ID":"46557","CENTER_NAME":"EARTH","ECCENTRICITY":"0.00015810","BSTAR":"0.00245020000000","PERIOD":"95.589","MEAN_MOTION":"15.06451381","MEAN_MOTION_DDOT":"0.0000000000000","FILE":"3892831","EPHEMERIS_TYPE":"0","OBJECT_NAME":"STARLINK-1679","TLE_LINE1":"1 46557U 20070AB  23113.45711063  .00036454  00000-0  24502-2 0  9990","SITE":"AFETR","INCLINATION":"53.0527","MEAN_ANOMALY":"286.2919","PERIAPSIS":"545.961"},{"REV_AT_EPOCH":"14128","TIME_SYSTEM":"UTC","MEAN_ELEMENT_THEORY":"SGP4","LAUNCH_DATE":"2020-10-06","COUNTRY_CODE":"US","RCS_SIZE":"LARGE","EPOCH":"2023-04-23T17:30:58.649472","TLE_LINE2":"2 46558  53.0525 199.5597 0001597  85.3460 274.7711 15.06487141141285","ELEMENT_SET_NO":"999","REF_FRAME":"TEME","OBJECT_ID":"2020-070AC","DECAY_DATE":null,"APOAPSIS":"548.052","OBJECT_TYPE":"PAYLOAD","RA_OF_ASC_NODE":"199.5597","SEMIMAJOR_AXIS":"6925.081","MEAN_MOTION_DOT":"0.00028184","ARG_OF_PERICENTER":"85.3460","CLASSIFICATION_TYPE":"U","GP_ID":"230657741","BSTAR":"0.00189900000000","NORAD_CAT_ID":"46558","CENTER_NAME":"EARTH","ECCENTRICITY":"0.00015970","MEAN_MOTION":"15.06487141","PERIOD":"95.587","FILE":"3892831","OBJECT_NAME":"STARLINK-1680","EPHEMERIS_TYPE":"0","MEAN_MOTION_DDOT":"0.0000000000000","PERIAPSIS":"545.841","INCLINATION":"53.0525","TLE_LINE1":"1 46558U 20070AC  23113.72984548  .00028184  00000-0  18990-2 0  9996","SITE":"AFETR","MEAN_ANOMALY":"274.7711"}];
